KSLV-II R/B             
1 66663U 25274P   25340.81046813  .00006269  00000+0  53389-3 0  9995
2 66663  97.7412 268.2109 0048411 339.2416  20.6839 14.97226496  1529
SOYUZ-MS 28             
1 66664U 25275A   25342.86487849  .00012323  00000+0  22804-3 0  9998
2 66664  51.6308 161.6653 0003381 221.9847 138.0883 15.49428834  1289
KOMPSAT-7               
1 66820U 25279A   25342.86995231  .00004761  00000+0  40385-3 0  9996
2 66820  97.6400 288.8147 0009454 234.6864 125.3475 14.98373092  1074
ZQ-3 R/B                
1 66877U 25282A   25342.62047863  .01149741  73104-5  24383-3 0  9995
2 66877  56.9533  73.3202 0824231 212.8744 141.8352 14.48659951   794
1998-067XS              
1 66906U 98067XS  25342.92637766  .00030670  00000+0  53800-3 0  9993
2 66906  51.6297 161.3264 0004020 185.5281 174.5664 15.50272351  1025
1998-067XT              
1 66907U 98067XT  25342.79645480  .00074227  00000+0  12614-2 0  9994
2 66907  51.6302 161.9586 0004971 204.3216 155.7539 15.50762002  1006
1998-067XU              
1 66908U 98067XU  25342.92515025  .00065818  00000+0  11183-2 0  9997
2 66908  51.6297 161.3178 0005167 203.3313 156.7442 15.50818267  1027
SILVERSAT               
1 66909U 98067XV  25342.73171405  .00079284  00000+0  13404-2 0  9997
2 66909  51.6297 162.2763 0005012 204.4469 155.6283 15.50878297   996
1998-067XW              
1 66910U 98067XW  25342.92393846  .00067841  00000+0  11401-2 0  9996
2 66910  51.6296 161.3100 0005926 189.6161 170.4716 15.51110893  1022
1998-067XX              
1 66911U 98067XX  25342.79484950  .00085043  00000+0  14185-2 0  9995
2 66911  51.6294 161.9483 0005754 189.9159 170.1718 15.51222448   994
1998-067XY              
1 66912U 98067XY  25342.79680776  .00060617  00000+0  10397-2 0  9991
2 66912  51.6301 161.9610 0005040 202.8515 157.2251 15.50590013   998
2025-284A               
1 66913U 25284A   25342.97328009  .00012323  00000+0  59051-3 0  9993
2 66913  80.4053 134.5390 0008037 258.9868 101.0456 15.18805631   551
