CCSDS_OMM_VERS = 2.0
CREATION_DATE  = 
ORIGINATOR     = 

OBJECT_NAME    = KSLV-II R/B
OBJECT_ID      = 2025-274P
CENTER_NAME    = EARTH
REF_FRAME      = TEME
TIME_SYSTEM    = UTC
MEAN_ELEMENT_THEORY = SGP/SGP4

EPOCH          = 2025-12-06T19:27:04.446432
MEAN_MOTION    = 14.97226496
ECCENTRICITY   = .00484111
INCLINATION    = 97.7412
RA_OF_ASC_NODE = 268.2109
ARG_OF_PERICENTER = 339.2416
MEAN_ANOMALY   = 20.6839

EPHEMERIS_TYPE = 0
CLASSIFICATION_TYPE = U
NORAD_CAT_ID   = 66663
ELEMENT_SET_NO = 999
REV_AT_EPOCH   = 152
BSTAR          = .53388811E-3
MEAN_MOTION_DOT = .6269E-4
MEAN_MOTION_DDOT = 0

CCSDS_OMM_VERS = 2.0
CREATION_DATE  = 
ORIGINATOR     = 

OBJECT_NAME    = SOYUZ-MS 28
OBJECT_ID      = 2025-275A
CENTER_NAME    = EARTH
REF_FRAME      = TEME
TIME_SYSTEM    = UTC
MEAN_ELEMENT_THEORY = SGP/SGP4

EPOCH          = 2025-12-08T20:45:25.501536
MEAN_MOTION    = 15.49428834
ECCENTRICITY   = .00033811
INCLINATION    = 51.6308
RA_OF_ASC_NODE = 161.6653
ARG_OF_PERICENTER = 221.9847
MEAN_ANOMALY   = 138.0883

EPHEMERIS_TYPE = 0
CLASSIFICATION_TYPE = U
NORAD_CAT_ID   = 66664
ELEMENT_SET_NO = 999
REV_AT_EPOCH   = 128
BSTAR          = .22803662E-3
MEAN_MOTION_DOT = .12323E-3
MEAN_MOTION_DDOT = 0

CCSDS_OMM_VERS = 2.0
CREATION_DATE  = 
ORIGINATOR     = 

OBJECT_NAME    = KOMPSAT-7
OBJECT_ID      = 2025-279A
CENTER_NAME    = EARTH
REF_FRAME      = TEME
TIME_SYSTEM    = UTC
MEAN_ELEMENT_THEORY = SGP/SGP4

EPOCH          = 2025-12-08T20:52:43.879584
MEAN_MOTION    = 14.98373092
ECCENTRICITY   = .0009454
INCLINATION    = 97.6400
RA_OF_ASC_NODE = 288.8147
ARG_OF_PERICENTER = 234.6864
MEAN_ANOMALY   = 125.3475

EPHEMERIS_TYPE = 0
CLASSIFICATION_TYPE = U
NORAD_CAT_ID   = 66820
ELEMENT_SET_NO = 999
REV_AT_EPOCH   = 107
BSTAR          = .4038464E-3
MEAN_MOTION_DOT = .4761E-4
MEAN_MOTION_DDOT = 0

CCSDS_OMM_VERS = 2.0
CREATION_DATE  = 
ORIGINATOR     = 

OBJECT_NAME    = ZQ-3 R/B
OBJECT_ID      = 2025-282A
CENTER_NAME    = EARTH
REF_FRAME      = TEME
TIME_SYSTEM    = UTC
MEAN_ELEMENT_THEORY = SGP/SGP4

EPOCH          = 2025-12-08T14:53:29.353632
MEAN_MOTION    = 14.48659951
ECCENTRICITY   = .08242315
INCLINATION    = 56.9533
RA_OF_ASC_NODE = 73.3202
ARG_OF_PERICENTER = 212.8744
MEAN_ANOMALY   = 141.8352

EPHEMERIS_TYPE = 0
CLASSIFICATION_TYPE = U
NORAD_CAT_ID   = 66877
ELEMENT_SET_NO = 999
REV_AT_EPOCH   = 79
BSTAR          = .24383409E-3
MEAN_MOTION_DOT = .1149741E-1
MEAN_MOTION_DDOT = .7310405E-5

CCSDS_OMM_VERS = 2.0
CREATION_DATE  = 
ORIGINATOR     = 

OBJECT_NAME    = 1998-067XS
OBJECT_ID      = 1998-067XS
CENTER_NAME    = EARTH
REF_FRAME      = TEME
TIME_SYSTEM    = UTC
MEAN_ELEMENT_THEORY = SGP/SGP4

EPOCH          = 2025-12-08T22:13:59.029824
MEAN_MOTION    = 15.50272351
ECCENTRICITY   = .00040207
INCLINATION    = 51.6297
RA_OF_ASC_NODE = 161.3264
ARG_OF_PERICENTER = 185.5281
MEAN_ANOMALY   = 174.5664

EPHEMERIS_TYPE = 0
CLASSIFICATION_TYPE = U
NORAD_CAT_ID   = 66906
ELEMENT_SET_NO = 999
REV_AT_EPOCH   = 102
BSTAR          = .53799922E-3
MEAN_MOTION_DOT = .3067E-3
MEAN_MOTION_DDOT = 0

CCSDS_OMM_VERS = 2.0
CREATION_DATE  = 
ORIGINATOR     = 

OBJECT_NAME    = 1998-067XT
OBJECT_ID      = 1998-067XT
CENTER_NAME    = EARTH
REF_FRAME      = TEME
TIME_SYSTEM    = UTC
MEAN_ELEMENT_THEORY = SGP/SGP4

EPOCH          = 2025-12-08T19:06:53.694720
MEAN_MOTION    = 15.50762002
ECCENTRICITY   = .00049716
INCLINATION    = 51.6302
RA_OF_ASC_NODE = 161.9586
ARG_OF_PERICENTER = 204.3216
MEAN_ANOMALY   = 155.7539

EPHEMERIS_TYPE = 0
CLASSIFICATION_TYPE = U
NORAD_CAT_ID   = 66907
ELEMENT_SET_NO = 999
REV_AT_EPOCH   = 100
BSTAR          = .12614232E-2
MEAN_MOTION_DOT = .74227E-3
MEAN_MOTION_DDOT = 0

CCSDS_OMM_VERS = 2.0
CREATION_DATE  = 
ORIGINATOR     = 

OBJECT_NAME    = 1998-067XU
OBJECT_ID      = 1998-067XU
CENTER_NAME    = EARTH
REF_FRAME      = TEME
TIME_SYSTEM    = UTC
MEAN_ELEMENT_THEORY = SGP/SGP4

EPOCH          = 2025-12-08T22:12:12.981600
MEAN_MOTION    = 15.50818267
ECCENTRICITY   = .00051673
INCLINATION    = 51.6297
RA_OF_ASC_NODE = 161.3178
ARG_OF_PERICENTER = 203.3313
MEAN_ANOMALY   = 156.7442

EPHEMERIS_TYPE = 0
CLASSIFICATION_TYPE = U
NORAD_CAT_ID   = 66908
ELEMENT_SET_NO = 999
REV_AT_EPOCH   = 102
BSTAR          = .11183297E-2
MEAN_MOTION_DOT = .65818E-3
MEAN_MOTION_DDOT = 0

CCSDS_OMM_VERS = 2.0
CREATION_DATE  = 
ORIGINATOR     = 

OBJECT_NAME    = SILVERSAT
OBJECT_ID      = 1998-067XV
CENTER_NAME    = EARTH
REF_FRAME      = TEME
TIME_SYSTEM    = UTC
MEAN_ELEMENT_THEORY = SGP/SGP4

EPOCH          = 2025-12-08T17:33:40.093920
MEAN_MOTION    = 15.50878297
ECCENTRICITY   = .0005012
INCLINATION    = 51.6297
RA_OF_ASC_NODE = 162.2763
ARG_OF_PERICENTER = 204.4469
MEAN_ANOMALY   = 155.6283

EPHEMERIS_TYPE = 0
CLASSIFICATION_TYPE = U
NORAD_CAT_ID   = 66909
ELEMENT_SET_NO = 999
REV_AT_EPOCH   = 99
BSTAR          = .13404205E-2
MEAN_MOTION_DOT = .79284E-3
MEAN_MOTION_DDOT = 0

CCSDS_OMM_VERS = 2.0
CREATION_DATE  = 
ORIGINATOR     = 

OBJECT_NAME    = 1998-067XW
OBJECT_ID      = 1998-067XW
CENTER_NAME    = EARTH
REF_FRAME      = TEME
TIME_SYSTEM    = UTC
MEAN_ELEMENT_THEORY = SGP/SGP4

EPOCH          = 2025-12-08T22:10:28.282944
MEAN_MOTION    = 15.51110893
ECCENTRICITY   = .00059267
INCLINATION    = 51.6296
RA_OF_ASC_NODE = 161.3100
ARG_OF_PERICENTER = 189.6161
MEAN_ANOMALY   = 170.4716

EPHEMERIS_TYPE = 0
CLASSIFICATION_TYPE = U
NORAD_CAT_ID   = 66910
ELEMENT_SET_NO = 999
REV_AT_EPOCH   = 102
BSTAR          = .11400627E-2
MEAN_MOTION_DOT = .67841E-3
MEAN_MOTION_DDOT = 0

CCSDS_OMM_VERS = 2.0
CREATION_DATE  = 
ORIGINATOR     = 

OBJECT_NAME    = 1998-067XX
OBJECT_ID      = 1998-067XX
CENTER_NAME    = EARTH
REF_FRAME      = TEME
TIME_SYSTEM    = UTC
MEAN_ELEMENT_THEORY = SGP/SGP4

EPOCH          = 2025-12-08T19:04:34.996800
MEAN_MOTION    = 15.51222448
ECCENTRICITY   = .00057546
INCLINATION    = 51.6294
RA_OF_ASC_NODE = 161.9483
ARG_OF_PERICENTER = 189.9159
MEAN_ANOMALY   = 170.1718

EPHEMERIS_TYPE = 0
CLASSIFICATION_TYPE = U
NORAD_CAT_ID   = 66911
ELEMENT_SET_NO = 999
REV_AT_EPOCH   = 99
BSTAR          = .14184856E-2
MEAN_MOTION_DOT = .85043E-3
MEAN_MOTION_DDOT = 0

CCSDS_OMM_VERS = 2.0
CREATION_DATE  = 
ORIGINATOR     = 

OBJECT_NAME    = 1998-067XY
OBJECT_ID      = 1998-067XY
CENTER_NAME    = EARTH
REF_FRAME      = TEME
TIME_SYSTEM    = UTC
MEAN_ELEMENT_THEORY = SGP/SGP4

EPOCH          = 2025-12-08T19:07:24.190464
MEAN_MOTION    = 15.50590013
ECCENTRICITY   = .00050406
INCLINATION    = 51.6301
RA_OF_ASC_NODE = 161.9610
ARG_OF_PERICENTER = 202.8515
MEAN_ANOMALY   = 157.2251

EPHEMERIS_TYPE = 0
CLASSIFICATION_TYPE = U
NORAD_CAT_ID   = 66912
ELEMENT_SET_NO = 999
REV_AT_EPOCH   = 99
BSTAR          = .10396633E-2
MEAN_MOTION_DOT = .60617E-3
MEAN_MOTION_DDOT = 0

CCSDS_OMM_VERS = 2.0
CREATION_DATE  = 
ORIGINATOR     = 

OBJECT_NAME    = 2025-284A
OBJECT_ID      = 2025-284A
CENTER_NAME    = EARTH
REF_FRAME      = TEME
TIME_SYSTEM    = UTC
MEAN_ELEMENT_THEORY = SGP/SGP4

EPOCH          = 2025-12-08T23:21:31.399776
MEAN_MOTION    = 15.18805631
ECCENTRICITY   = .00080378
INCLINATION    = 80.4053
RA_OF_ASC_NODE = 134.5390
ARG_OF_PERICENTER = 258.9868
MEAN_ANOMALY   = 101.0456

EPHEMERIS_TYPE = 0
CLASSIFICATION_TYPE = U
NORAD_CAT_ID   = 66913
ELEMENT_SET_NO = 999
REV_AT_EPOCH   = 55
BSTAR          = .59050867E-3
MEAN_MOTION_DOT = .12323E-3
MEAN_MOTION_DDOT = 0

